RESOURCESAT-2           
1 37387U 11015A   25142.81426302  .00000113  00000+0  71764-4 0  9999
2 37387  98.8092 206.9733 0004729 258.8120 101.2526 14.21574833731246
YOUTHSAT                
1 37388U 11015B   25142.55580831  .00000227  00000+0  11347-3 0  9995
2 37388  98.3242 130.3508 0015620  52.4703  60.1181 14.25383972731983
APRIZESAT 6             
1 37793U 11044F   25142.47920716  .00000739  00000+0  11389-3 0  9992
2 37793  98.2628  39.7647 0042446 254.7262 278.2094 14.76049409739498
JUGNU                   
1 37839U 11058B   25142.41773810  .00000444  00000+0  92701-4 0  9994
2 37839  19.9589 162.1527 0018845  81.3736  56.1275 14.13597406703669
SRMSAT                  
1 37841U 11058D   25142.63323481  .00000427  00000+0  87876-4 0  9994
2 37841  19.9720 263.1554 0011627 227.4996 161.7059 14.11430591702574
SUOMI NPP               
1 37849U 11061A   25142.56796610  .00000097  00000+0  66766-4 0  9994
2 37849  98.7573  82.0348 0001982  40.4957 319.6366 14.19533689703010
YAOGAN-12               
1 37875U 11066B   25142.86955698  .00006350  00000+0  26843-3 0  9993
2 37875  97.1678 194.5452 0010096 173.5905 186.5464 15.23510626753141
ZIYUAN 3-1 (ZY 3-1)     
1 38046U 12001A   25142.87411161  .00016564  00000+0  27551-3 0  9992
2 38046  97.1995 207.4379 0003330  31.3341 328.8110 15.52119351743289
BEIDOU-2 M4             
1 38251U 12018B   25142.21715199 -.00000050  00000+0  00000+0 0  9994
2 38251  55.9916 317.2654 0011408 272.5469  87.3225  1.86231952 89015
ARIRANG-3 (KOMPSAT-3)   
1 38338U 12025B   25142.53599731  .00000499  00000+0  10803-3 0  9997
2 38338  98.3053  95.9866 0005725 245.0655 114.9951 14.62478037694274
HORYU-2                 
1 38340U 12025D   25142.34560612  .00003254  00000+0  36497-3 0  9994
2 38340  98.1764 256.5010 0008961  27.3091 332.8594 14.87524055690550
CSSWE                   
1 38761U 12048D   25142.85247395  .00010860  00000+0  37715-3 0  9997
2 38761  64.6642 313.5713 0114669 279.0856  79.7311 15.24075159 56538
CP5                     
1 38763U 12048F   25142.83741088  .00006484  00000+0  28055-3 0  9999
2 38763  64.6562 350.3875 0129767 283.1712  75.4959 15.15989623 57375
METOP-B                 
1 38771U 12049A   25142.80017044  .00000102  00000+0  66049-4 0  9991
2 38771  98.5779 197.5161 0001908  79.4099 280.7293 14.21496729657799
SJ-9A                   
1 38860U 12056A   25142.86700121  .00001143  00000+0  14129-3 0  9996
2 38860  97.6244 125.4839 0027759 101.1630 259.2708 14.84351670680874
COSMOS 2484             
1 39059U 13001C   25142.58809351  .00000036  00000+0  18651-3 0  9996
2 39059  82.4997 104.7864 0026425 162.3490 197.8513 12.42922439560037
SARAL                   
1 39086U 13009A   25142.87147784  .00000105  00000+0  54518-4 0  9991
2 39086  98.5538 329.4479 0002373  33.2751 326.8582 14.32700337639710
AAUSAT 3                
1 39087U 13009B   25142.76991521  .00000687  00000+0  23538-3 0  9998
2 39087  98.3671 330.7365 0010536 308.7571  51.2675 14.39201575641325
STRAND-1                
1 39090U 13009E   25142.49962216  .00000326  00000+0  12499-3 0  9995
2 39090  98.3827 327.6710 0007931 325.8930  34.1746 14.36804795640952
BRITE-AUSTRIA           
1 39091U 13009F   25142.49879865  .00000214  00000+0  87852-4 0  9995
2 39091  98.3885 326.9262 0009590 333.1286  26.9402 14.36301108640969
UNIBRITE                
1 39092U 13009G   25142.47612797  .00000217  00000+0  89231-4 0  9999
2 39092  98.3924 326.9163 0008454 329.9674  30.1027 14.36172821640908
AIST-2 (RS-43)          
1 39133U 13015D   25142.85031076  .00005041  00000+0  23523-3 0  9990
2 39133  64.8704  87.9965 0030474 283.1011  76.6716 15.20612743664884
GAOFEN-1                
1 39150U 13018A   25142.85535458  .00000622  00000+0  96375-4 0  9991
2 39150  97.9501 216.8466 0019181  83.9345 276.4050 14.76497894650684
NEE-01 PEGASO           
1 39151U 13018B   25142.39461229  .00002350  00000+0  24501-3 0  9996
2 39151  98.0702 270.8409 0013486  15.7466 344.4168 14.90728003652421
TURKSAT-3USAT           
1 39152U 13018C   25142.78655242  .00003271  00000+0  32055-3 0  9996
2 39152  97.8077 230.9377 0011707 324.6773  35.3670 14.92905807652786
CUBEBUG-1 (CAPITAN BETO)
1 39153U 13018D   25142.34698333  .00003646  00000+0  35078-3 0  9991
2 39153  98.1168 282.2275 0012413   5.9919 354.1446 14.93605515652658
PROBA-V                 
1 39159U 13021A   25142.53147073  .00000095  00000+0  59554-4 0  9993
2 39159  98.3205 136.3849 0003979 179.7074 180.4109 14.23481609625535
ESTCUBE 1               
1 39161U 13021C   25142.69534145  .00001670  00000+0  22911-3 0  9999
2 39161  97.7815 204.7769 0008005 198.0614 162.0315 14.79662897647280
ARIRANG-5 (KOMPSAT-5)   
1 39227U 13042A   25142.82836707  .00001418  00000+0  10557-3 0  9992
2 39227  97.6198 329.9831 0003677  57.4862 302.6719 15.04518346645229
GONETS-M 5              
1 39249U 13048A   25142.54044940  .00000022  00000+0  91394-4 0  9990
2 39249  82.4832 226.8821 0015452 348.8252  11.2482 12.42864283530358
GONETS-M 7              
1 39251U 13048C   25142.59262058  .00000012  00000+0  17799-4 0  9996
2 39251  82.4899 229.5680 0016285 349.6011  10.4729 12.42896551530318
FENGYUN 3C              
1 39260U 13052A   25142.55397440  .00000107  00000+0  75437-4 0  9999
2 39260  98.4538 130.4602 0015879  69.8936 290.3946 14.15622054603367
CASSIOPE                
1 39265U 13055A   25142.84578996  .00015381 -38155-6  24587-3 0  9995
2 39265  80.9421 169.8102 0392919 270.4105  85.2110 14.97181776608721
APRIZESAT 7             
1 39416U 13066A   25142.45877718  .00001514  00000+0  16033-3 0  9996
2 39416  97.7200  98.0690 0038490  67.1171 293.4103 14.90065580623011
ZACUBE-1 (TSHEPISOSAT)  
1 39417U 13066B   25142.39993083  .00004101  00000+0  35903-3 0  9996
2 39417  97.7781  99.5137 0045645 111.9721 248.6360 14.96465083622190
APRIZESAT 8             
1 39425U 13066K   25142.79874609  .00000973  00000+0  11417-3 0  9998
2 39425  97.7754  92.3096 0048230 128.9110 231.6421 14.86414802621929
CINEMA-3 (KHUSAT-2)     
1 39426U 13066L   25142.31134944  .00002033  00000+0  27793-3 0  9991
2 39426  97.8468  60.0509 0093746  38.3503 322.4323 14.76644251616731
TRITON-1                
1 39427U 13066M   25142.81350467  .00002848  00000+0  36400-3 0  9996
2 39427  97.8380  57.0375 0096287  64.5256 296.5878 14.78941638616525
DELFI-N3XT              
1 39428U 13066N   25142.74432183  .00006433  00000+0  65764-3 0  9994
2 39428  97.8357  60.5974 0087007  59.8343 301.1458 14.88094505616607
GOMX-1                  
1 39430U 13066Q   25142.82722365  .00001348  00000+0  21697-3 0  9997
2 39430  97.6856   2.5805 0131144 249.0997 109.6128 14.67570750612802
BRITE-PL1 (LEM)         
1 39431U 13066R   25142.80913431  .00001162  00000+0  24207-3 0  9996
2 39431  97.7517 279.2840 0193766 145.1440 216.2626 14.50551125607525
ICUBE-1                 
1 39432U 13066S   25142.88346217  .00008319  00000+0  45489-3 0  9993
2 39432  97.5349 123.2247 0018974 248.3177 111.6034 15.14380674626348
HUMSAT-D                
1 39433U 13066T   25142.24410179  .00025726  00000+0  77645-3 0  9993
2 39433  97.5026 137.8020 0011681 166.9027 193.2521 15.34191321626267
VELOX-PII               
1 39438U 13066Y   25142.43800927  .00002106  00000+0  21902-3 0  9995
2 39438  97.8287  90.5813 0055853 193.8645 166.1042 14.89824605619595
FIRST-MOVE              
1 39439U 13066Z   25142.89252155  .00028178  00000+0  10412-2 0  9990
2 39439  97.7422 116.5291 0028518  54.6943 305.6955 15.27306254623303
CUBEBUG-2 (LO-74)       
1 39440U 13066AA  25142.40963907  .00003147  00000+0  32284-3 0  9994
2 39440  97.8485  87.0984 0060577 239.3997 120.1237 14.89816986618737
NEE-02 KRYSAOR          
1 39441U 13066AB  25142.38395809  .00002128  00000+0  25049-3 0  9991
2 39441  97.8547  81.0133 0067394 269.8390  89.5101 14.84293746618181
FUNCUBE-1 (AO-73)       
1 39444U 13066AE  25142.82861966  .00006223  00000+0  46896-3 0  9998
2 39444  97.7826 104.6765 0043941  86.8517 273.7734 15.02063308621516
HINCUBE                 
1 39445U 13066AF  25142.86251467  .00005106  00000+0  39440-3 0  9998
2 39445  97.7490 103.9974 0043563  94.5358 266.0845 15.01230259621010
UWE-3                   
1 39446U 13066AG  25142.84106249  .00002357  00000+0  22762-3 0  9998
2 39446  97.8227  93.8668 0053257 176.1344 184.0297 14.92761921619853
SMDC ONE 2.4            
1 39469U 13072H   25142.36488495  .00006995  00000+0  36396-3 0  9993
2 39469 120.4961 297.1054 0169254 315.9236  42.8448 15.05918527 58725
CP8 (IPEX)              
1 39471U 13072K   25142.58353136  .00004036  00000+0  25284-3 0  9991
2 39471 120.4677 264.1995 0181928 307.0530  51.4021 14.99439776 56481
COSMOS 2488             
1 39483U 13076A   25142.86646576  .00000005  00000+0 -31728-4 0  9996
2 39483  82.4865  51.9371 0018058 225.0844 134.8771 12.42862665517595
COSMOS 2489             
1 39484U 13076B   25142.51690999  .00000010  00000+0  43861-5 0  9994
2 39484  82.4900  53.4130 0019807 226.3716 133.5721 12.42863036517416
COSMOS 2490             
1 39485U 13076C   25142.56862900  .00000005  00000+0 -32066-4 0  9992
2 39485  82.4848  51.6174 0019939 243.2173 116.6867 12.42861526517355
AIST-1 (RS-41)          
1 39492U 13078C   25142.81850346  .00001832  00000+0  16717-3 0  9993
2 39492  82.4147 288.5422 0018299 141.4600 218.7931 14.94436536619249
KAZEOSAT 1              
1 39731U 14024A   25142.79395277  .00000175  00000+0  66535-4 0  9998
2 39731  98.3596 219.0377 0001222  97.8224 262.3105 14.42043768582343
COSMOS 2496             
1 39761U 14028A   25142.85169255  .00000039  00000+0  21424-3 0  9993
2 39761  82.4468 353.2156 0019166 208.9484 151.0534 12.42889787499088
COSMOS 2497             
1 39762U 14028B   25142.58341904  .00000034  00000+0  17272-3 0  9998
2 39762  82.4518 354.9151 0019716 204.1287 155.8871 12.42861517498994
